0 FENGYUN 1C DEB
1 30468U 99025AGF 13281.47277987  .00001199  00000-0  78213-3 0   245
2 30468 099.1487 268.7047 0087884 248.2736 236.6183 14.02500136341933
0 FENGYUN 1C DEB
1 30468U 99025AGF 13282.95692123  .00001279  00000-0  83236-3 0   253
2 30468 099.1486 270.1953 0087877 244.1287 170.1029 14.02507311342140
0 FENGYUN 1C DEB
1 30468U 99025AGF 13286.18232759  .00001213  00000-0  79033-3 0   277
2 30468 099.1482 273.4345 0087898 235.0537 255.4691 14.02516628342599
0 FENGYUN 1C DEB
1 30468U 99025AGF 13287.66412863  .00001515  00000-0  98010-3 0   289
2 30468 099.1481 274.9224 0087958 230.8942 177.2429 14.02521731342805
0 FENGYUN 1C DEB
1 30468U 99025AGF 13289.47073043  .00001376  00000-0  89248-3 0   292
2 30468 099.1483 276.7366 0088028 225.8125 299.0197 14.02529232343057
0 FENGYUN 1C DEB
1 30468U 99025AGF 13290.66295059  .00001520  00000-0  98295-3 0   303
2 30468 099.1486 277.9337 0088117 222.4882 198.6979 14.02532556343227
0 FENGYUN 1C DEB
1 30468U 99025AGF 13291.94558917  .00001530  00000-0  98908-3 0   313
2 30468 099.1487 279.2217 0088168 218.8930 194.9482 14.02535184343407
0 FENGYUN 1C DEB
1 30468U 99025AGF 13293.52789779  .00001620  00000-0  10449-2 0   325
2 30468 099.1487 280.8109 0088266 214.4824 264.2763 14.02540627343623
0 FENGYUN 1C DEB
1 30468U 99025AGF 13294.52854424  .00001609  00000-0  10381-2 0   339
2 30468 099.1486 281.8159 0088332 211.7011 276.7055 14.02544201343769
